#dP2023  8 20 12  0  0.00000000      96 __u+U ITR00 EXT  IAC
## 2276  43200.00000000   900.00000000 60176 0.5000000000000
+  119   C06C07C08C09C10C11C12C13C14C16C19C20C21C22C23C24C25
+        C26C27C28C29C30C32C33C34C35C36C37C38C39C40C41C42C43
+        C44C45C46E02E03E04E05E07E08E09E10E11E12E13E14E15E18
+        E19E21E24E25E26E27E30E31E33E34E36G01G02G03G04G05G06
+        G07G08G09G10G11G12G13G14G15G16G17G18G19G20G21G22G23
+        G24G25G26G27G28G29G30G31G32J02J03J04R01R02R03R04R05
+        R07R08R09R11R12R13R14R15R16R17R18R19R20R21R22R24R25
++        10  9  9  8  9  9  9  9 10  9  8  9  7  8  9  9  8
++         8  9  9  9  8  8  9  8  8  7  7 11 10  9 11  8  9
++         6  9  8  7  7  8  8  7  8  7  8  6  8  8  6  8  7
++         7  7  7  8  8  7  8  8  7  7  7  8  8  7  8  7  7
++         7  7  6  8  7  6  7  7  7  7  6  8  7  6  8  7  7
++         7  7  6  7  8  7  7  8  7  9 11 10  7  7  9  8  8
++         7  8  7  7  7  9  8  8  8  6  7  8 10  9  7  7  9
%c M  cc GPS ccc cccc cccc cccc cccc ccccc ccccc ccccc ccccc
%c cc cc ccc ccc cccc cccc cccc cccc ccccc ccccc ccccc ccccc
%f  0.0000000  0.000000000  0.00000000000  0.000000000000000
%f  0.0000000  0.000000000  0.00000000000  0.000000000000000
%i    0    0    0    0      0      0      0      0         0
%i    0    0    0    0      0      0      0      0         0
/* IAC                                ULTRA-RAPID PREDICTION
/* S/V CLOCKS ARE ALIGNED TO GNSS TIME                      
/* G:C1WC2W R:C1PC2P E:C1XC5X C:C2IC6I J:C1CC2S             
/* PCV:IGS20_2247 OL/AL:FES2004  NONE     YN ORB:CoN CLK:CoN
*  2023 08 21  6 15  0.00000000
PC06 -13515.475752  40098.157237   -689.713071    935.687994
PC07  -3796.581199  30032.257962 -29188.875828     37.251466
PC08 -16767.007714  21998.082984  31720.470046    380.956466
PC09  -9246.250536  40352.678642  -9025.765846    266.298210
PC10   3346.343093  32474.796980 -26071.975723   -152.273192
PC11   6991.857738 -26348.756893   6107.202979    790.272324
PC12  14775.230751 -12131.576381  20371.858373    888.859570
PC13  -8826.158647  23590.110073  33878.290004    337.999031
PC14   2763.219027 -16543.608473 -22305.347164    264.258336
PC16 -15454.676132  39334.906063   2613.742355    -44.642145
PC19   7131.190940  19871.303527  18252.927290   -964.898307
PC20 -10709.076462  11603.704954  23013.321375    345.591952
PC21  23575.050297   4423.537892 -14234.918477   -953.112528
PC22  21832.318524  17151.806491   2659.372088   -342.216046
PC23 -14623.912635 -10194.647768  21480.766775   -897.921595
PC24  21691.202640 -16080.814759   7093.645932    306.642885
PC25   3645.812791 -18487.964158  20583.336879    193.944610
PC26  25728.000404  -5539.774173  -9344.840549   -166.242357
PC27 -16081.764249   2620.375652 -22676.190401    187.505138
PC28 -11964.141740 -16406.114774 -19144.001517    140.319080
PC29    764.841697  27733.782024   2966.640022    163.729805
PC30 -11178.802438  21053.304695 -14529.844005     -3.773942
PC32 -23671.733367  -4332.613478  14147.241020   -531.287143
PC33  -7173.842109 -19834.290921 -18285.454908   -942.917177
PC34  10522.947995 -22076.514768  13414.924765    241.797496
PC35  12521.793089  16205.957717  18957.642990    563.377967
PC36  -4924.431858  18537.796013 -20237.579518   -265.794735
PC37 -25642.473837   4226.430174  10153.097294   -811.186673
PC38 -23966.646690  23319.688943  25590.270904     99.544730
PC39 -16470.126136  37945.055021   8841.119533     -4.421259
PC40  -7391.742171  24857.882856 -33156.795826    -33.648688
PC41 -21584.221286 -17374.401423  -3316.432071   -886.078854
PC42  12015.211771 -10638.384138 -22791.583060   -571.237032
PC43   -161.700128 -27816.619028  -2139.998853     36.194777
PC44  16103.507380  -2968.206685  22580.131643    206.624932
PC45  15073.237352   9723.484390 -21376.835839    -16.440653
PC46 -20853.001050  16526.517350  -8343.136217    -78.154470
PE02 -13918.932068 -16023.350894  20630.710618     56.912903
PE03 -12875.616915 -26597.362709   1849.686514    -48.029462
PE04  19455.740325  12752.266626 -18298.140039   -194.104258
PE05   1265.042538 -25009.761459 -15785.539617     10.958605
PE07 -14837.281506   8407.197095  24195.592791    -68.925050
PE08 -19353.916562 -13211.171444  18090.664324   -133.632064
PE09  14760.198921  -8232.313051 -24302.102302   -127.905550
PE10  21173.550904  -8062.377517  19044.367678   -557.689095
PE11  21498.455582 -17302.185318  10686.059793   2769.454659
PE12  17759.465582   1712.746460  23608.653001   -666.178876
PE13 -21558.590634  16787.729417 -11382.335115    -19.471311
PE14  12336.933894  19047.264292   6607.523503    317.337737
PE15 -17500.668088  -2051.558969 -23783.706983    -46.782830
PE18 -19526.262562 -21687.808922 -14207.218400    437.958756
PE19  11218.746800  27385.133454    611.287314  -1804.826297
PE21  -7391.230940  15716.426258 -23963.270034   -547.897172
PE24  25930.354506  -5848.631849  13035.154319   -277.459752
PE25   7797.221278 -15629.515525  23909.128460     -0.574387
PE26 -12414.550352  25596.395723   8156.634257    198.956191
PE27 -25538.130264   6305.800546 -13557.783004   -129.841217
PE30 -28273.556967  -7089.492769   5119.177255   -435.032536
PE31  28447.767340   6694.948035  -4688.797903     -3.168373
PE33   2724.482774  19827.586475  21799.918575     -1.327467
PE34  -3302.289856 -19425.879308 -22104.114069    -62.684591
PE36  12941.666068 -25541.063084  -7511.849509   -104.183273
PG01  13930.199750 -21988.899898  -4596.201119    167.846638
PG02  16659.860629 -20246.469615   4112.276645   -563.134805
PG03   9396.968048 -13069.454710 -21248.522159   -176.814118
PG04   2873.584276 -21877.805051 -14686.043339    132.004171
PG05 -23121.773045   5890.374293  11593.887434   -139.614822
PG06 -14226.122614  -5115.977775 -21788.956812    563.276665
PG07    139.172656 -20292.226886  17352.338455     89.826990
PG08  10254.810462 -12871.265839  20690.914779   -138.247566
PG09  -5431.991910 -25034.819970  -7000.159610    -81.142471
PG10  21093.872991  11163.889784  12170.616162    -50.143917
PG11 -20472.093080   7987.377831 -14870.710219   -330.610929
PG12 -14073.861453  11097.244035 -19850.520870   -415.392857
PG13 -14422.151250   3797.419008  21786.458422    562.729782
PG14 -18166.372691 -13403.178679  14144.722765    160.517848
PG15  -8251.004291  14962.406284  19801.540072     69.661059
PG16  25529.180489    325.550910   7810.176448   -465.429955
PG17 -13274.817125 -21051.291752  -8682.630583    722.997515
PG18   1041.421190  18827.172199  18634.123136   -389.910876
PG19 -15550.492398 -14986.642812 -15887.550559    360.537224
PG20 -26400.528033   1480.782011    900.340470    416.107952
PG21  17454.115618 -18378.181880   6682.157374    150.378565
PG22 -22623.460018 -11196.496548   8257.930542    137.600572
PG23   9603.501800  14697.157904  19986.415090     57.743524
PG24 -14712.448007  21803.098079    772.094936   -296.073099
PG25   1291.887464  15733.263695 -21696.182518    463.357459
PG26  26168.855949   4390.703045  -3513.040360    232.091688
PG27  15873.141661    302.840579  21104.792809    -25.736621
PG28  13574.832908   7094.342257 -21720.348574     74.152543
PG29   2992.763478  25358.156231  -7163.963631   -608.143578
PG30  -8608.068718 -14006.167594  20944.156970   -494.715996
PG31  19346.029984  -3229.387320 -18279.628911   -222.171762
PG32  16206.979269  17408.541318 -11846.102069   -544.327087
PJ02 -31442.900310  14578.924973 -19376.540518     -2.839456
PJ03 -24220.591737  32060.369852  -8028.529824     -1.359225
PJ04 -25026.470056  27393.066313  25879.271415     70.487409
PR01  12027.480553  -3260.767709 -22259.026817     63.935598
PR02  -2817.889578 -15935.048814 -19654.070877    -22.505682
PR03 -15696.050189 -19278.694604  -5532.044501     83.701576
PR04 -19394.398367 -12121.738755  11304.214683    199.547787
PR05 -12728.924088   1662.931755  22044.115369    117.675756
PR07  16095.028548  19239.913276   4814.189434     62.902768
PR08  19498.562625  11907.895589 -11324.962936    -72.203612
PR09  -9568.146065  13099.603868 -19691.223564    137.841302
PR11  21831.059657    238.419761 -13161.301037   -138.465032
PR12  23088.629143  -9265.752123   5692.467095     30.398713
PR13  11722.854040 -12773.344145  18702.447430    -38.374450
PR14  -8917.430462  -8713.682451  22274.499788     25.117257
PR15 -22503.259933    220.385864  12042.539744     86.840440
PR16 -23184.374179   9248.183918  -5332.046362     17.904995
PR17  -2531.724139 -19333.939553 -16469.137486     10.672256
PR18  -9739.083039  -3952.413119 -23228.554881     97.833086
PR19 -12477.181186  11642.355412 -18956.140791   -244.271683
PR20  -7930.416309  24254.179416   -598.274811    -98.644621
PR21   2934.970955  18508.813678  17283.681901    -31.964158
PR22  10337.548786   3392.121737  23095.478488    116.572737
PR24   6784.463447 -24603.690286      5.505009    -21.277701
PR25   1885.556316  19471.075205  16357.975894     41.609529
EOF
